[{"OBJECT_NAME":"STARLINK-6278","OBJECT_ID":"2023-061AQ","EPOCH":"2026-03-09T08:02:06.834048","MEAN_MOTION":15.02712344,"ECCENTRICITY":0.00016319,"INCLINATION":43.0043,"RA_OF_ASC_NODE":186.1896,"ARG_OF_PERICENTER":305.6689,"MEAN_ANOMALY":54.4001,"EPHEMERIS_TYPE":0,"CLASSIFICATION_TYPE":"U","NORAD_CAT_ID":56412,"ELEMENT_SET_NO":999,"REV_AT_EPOCH":15685,"BSTAR":0.0016133454,"MEAN_MOTION_DOT":0.0002176,"MEAN_MOTION_DDOT":0},{"OBJECT_NAME":"QPS-SAR-9 (SUSANOO-I)","OBJECT_ID":"2025-050A","EPOCH":"2026-03-09T22:44:21.680160","MEAN_MOTION":15.02099025,"ECCENTRICITY":0.00041027,"INCLINATION":42.0195,"RA_OF_ASC_NODE":290.2117,"ARG_OF_PERICENTER":235.6113,"MEAN_ANOMALY":124.4326,"EPHEMERIS_TYPE":0,"CLASSIFICATION_TYPE":"U","NORAD_CAT_ID":63205,"ELEMENT_SET_NO":999,"REV_AT_EPOCH":5403,"BSTAR":0.00053180523,"MEAN_MOTION_DOT":6.925e-5,"MEAN_MOTION_DDOT":0}]
